[Satellite]
VERSION=1.1
NAME=UPSAT
NICKNAME=UPSAT
TLE1=1 42716U 98067LX  18021.18026301  .00027215  00000-0  26752-3 0  9995
TLE2=2 42716  51.6375  21.4941 0004343  58.1582 301.9836 15.65800047 38673
